COSMOS 2361             
1 25590U 98076A   24156.93007488  .00000090  00000+0  80698-4 0  9991
2 25590  82.9358  35.0415 0031879  13.6806 356.9148 13.73119207274832
COSMOS 2378             
1 26818U 01023A   24156.44936650  .00000071  00000+0  59982-4 0  9990
2 26818  82.9286  52.0961 0032091 318.0010 215.5291 13.74050006152833
COSMOS 2389             
1 27436U 02026A   24156.85721972  .00000095  00000+0  83146-4 0  9990
2 27436  82.9512 358.3972 0046599 169.5611 201.9394 13.75064547105095
COSMOS 2398             
1 27818U 03023A   24157.23724912  .00000094  00000+0  86496-4 0  9992
2 27818  82.9473 322.0333 0030589 213.7035 319.6234 13.72296489 51952
COSMOS 2407             
1 28380U 04028A   24156.56581972  .00000091  00000+0  77393-4 0  9998
2 28380  82.9606 264.7411 0039641 167.4829 203.3401 13.76212338997924
COSMOS 2414             
1 28521U 05002A   24156.53354297  .00000107  00000+0  76917-4 0  9992
2 28521  82.9505 245.2878 0038783 287.5061  72.1866 13.87776021980833
COSMOS 2429             
1 32052U 07038A   24157.17784438  .00000097  00000+0  84607-4 0  9995
2 32052  82.9822  32.7392 0039129 145.7983 214.5705 13.75054564839769
COSMOS 2454             
1 35635U 09039A   24157.20293811  .00000103  00000+0  71088-4 0  9999
2 35635  82.9572 229.7942 0018356 218.6574 205.8418 13.89804634754525
COSMOS 2463             
1 36519U 10017A   24157.25284600  .00000070  00000+0  60401-4 0  9990
2 36519  82.9613  74.8228 0037007  30.7177  80.2492 13.71560763706319
